KUIPER-00053            
1 64513U 25134P   25322.39588391  .00003335  00000+0  46695-3 0  9990
2 64513  51.9033 354.9812 0002372 319.3690  40.7095 14.79876591 23736
KUIPER-00054            
1 64514U 25134Q   25324.24809852  .00002653  00000+0  37782-3 0  9994
2 64514  51.8987 342.0329 0004771 305.8644  54.1875 14.79833634 24073
KUIPER-00055            
1 64515U 25134R   25324.27740253  .00019074  00000+0  96677-3 0  9990
2 64515  51.8922 333.8217 0002381  76.2304 283.8939 15.16975028 24195
KUIPER-00056            
1 64516U 25134S   25324.24096592 -.00000937  00000+0 -93862-4 0  9992
2 64516  51.9054 348.0957 0001378 303.3872  56.6958 14.79943866 23998
KUIPER-00057            
1 64517U 25134T   25324.30035935 -.00013207  00000+0 -17074-2 0  9997
2 64517  51.9008 355.3286 0008899 277.0001  82.9949 14.79882026 23891
KUIPER-00058            
1 64518U 25134U   25324.23992215 -.00017393  00000+0 -22616-2 0  9991
2 64518  51.9022 349.5133 0004169 314.3995  45.6626 14.79863841 23978
KUIPER-00059            
1 64519U 25134V   25324.31288145  .00012312  00000+0  16423-2 0  9994
2 64519  51.9006 344.2467 0004378 104.8186 255.3262 14.79898541 24050
KUIPER-00060            
1 64520U 25134W   25324.24294375  .00003688  00000+0  51076-3 0  9990
2 64520  51.9034 345.5842 0002268  11.8286 348.2730 14.80077778 24019
